GSAT-18                 
1 41793U 16060A   26074.15350422 -.00000077  00000+0  00000+0 0  9991
2 41793   0.0217 108.2868 0003673 297.7459 255.9506  1.00271869 34587
SKY MUSTER 2 (NBN1B)    
1 41794U 16060B   26072.56294459 -.00000244  00000+0  00000+0 0  9998
2 41794   0.0191 198.6979 0001412 157.6335 162.2902  1.00272534 34569
HIMAWARI-9              
1 41836U 16064A   26072.32490329 -.00000275  00000+0  00000+0 0  9991
2 41836   0.0168 188.9082 0001493 206.6887  33.0744  1.00270032 34248
SHIJIAN-17 (SJ-17)      
1 41838U 16065A   26071.71796359  .00000054  00000+0  00000+0 0  9992
2 41838   5.5064  73.7601 0001148 325.6027  47.6368  0.99865501 34249
GOES 16                 
1 41866U 16071A   26074.26088466 -.00000092  00000+0  00000+0 0  9999
2 41866   0.1254  86.8652 0002168 230.0129 205.2111  1.00272428 34160
TIANLIAN 1-04           
1 41869U 16072A   26074.24519794  .00000030  00000+0  00000+0 0  9995
2 41869   0.6247  83.4617 0040012  94.6505 259.8159  1.00269205 34353
WGS F8 (USA 272)        
1 41879U 16075A   26072.53169691 -.00000203  00000+0  00000+0 0  9999
2 41879   0.0123 191.9738 0000270 214.5677 105.8050  1.00270429 33860
FENGYUN 4A              
1 41882U 16077A   26074.30612487 -.00000356  00000+0  00000+0 0  9997
2 41882   2.0823  81.2695 0007138 133.1891 192.4143  1.00274081 33986
ECHOSTAR 19             
1 41893U 16079A   26073.05006929 -.00000139  00000+0  00000+0 0  9999
2 41893   0.0172 136.0079 0001458 225.6650  90.9198  1.00272326 33743
JCSAT-110A (JCSAT-15)   
1 41903U 16082A   26073.52266909 -.00000351  00000+0  00000+0 0  9999
2 41903   0.0183 153.5843 0000721 232.1672  84.5958  1.00270383 33811
STAR ONE D1             
1 41904U 16082B   26074.12239074 -.00000211  00000+0  00000+0 0  9995
2 41904   0.0096 129.8060 0002154 231.2186 131.7373  1.00270741 33830
TJS-2                   
1 41911U 17001A   26074.20183620 -.00000008  00000+0  00000+0 0  9993
2 41911   0.5888  86.7136 0001658 265.1132 320.1998  1.00273700 33770
SBIRS GEO-4 (USA 273)   
1 41937U 17004A   26073.57262214  .00000124  00000+0  00000+0 0  9998
2 41937   2.0663  40.3824 0002303 316.9095  41.9346  1.00272872 33647
HISPASAT 36W-1          
1 41942U 17006A   26072.84822176 -.00000245  00000+0  00000+0 0  9999
2 41942   0.0179  35.8302 0001002 317.5629  87.4255  1.00271590 33288
TELKOM 3S               
1 41944U 17007A   26074.01977699 -.00000363  00000+0  00000+0 0  9995
2 41944   0.0129 170.1148 0002272 188.7688 298.8613  1.00272461 33193
INTELSAT 32E (IS-32E)   
1 41945U 17007B   26071.49187659 -.00000269  00000+0  00000+0 0  9999
2 41945   0.0131 123.3831 0000116 337.3904 203.2341  1.00269761 33258
ECHOSTAR 23             
1 42070U 17014A   26073.11888292  .00000000  00000+0  00000+0 0  9991
2 42070   0.0262 151.6370 0001928 194.5363 118.4769  1.00269918 32972
