[{"OBJECT_NAME":"GSAT-18","OBJECT_ID":"2016-060A","EPOCH":"2026-03-15T03:41:02.764608","MEAN_MOTION":1.00271869,"ECCENTRICITY":0.00036736,"INCLINATION":0.0217,"RA_OF_ASC_NODE":108.2868,"ARG_OF_PERICENTER":297.7459,"MEAN_ANOMALY":255.9506,"EPHEMERIS_TYPE":0,"CLASSIFICATION_TYPE":"U","NORAD_CAT_ID":41793,"ELEMENT_SET_NO":999,"REV_AT_EPOCH":3458,"BSTAR":0,"MEAN_MOTION_DOT":-7.7e-7,"MEAN_MOTION_DDOT":0},{"OBJECT_NAME":"SKY MUSTER 2 (NBN1B)","OBJECT_ID":"2016-060B","EPOCH":"2026-03-13T13:30:38.412576","MEAN_MOTION":1.00272534,"ECCENTRICITY":0.00014122,"INCLINATION":0.0191,"RA_OF_ASC_NODE":198.6979,"ARG_OF_PERICENTER":157.6335,"MEAN_ANOMALY":162.2902,"EPHEMERIS_TYPE":0,"CLASSIFICATION_TYPE":"U","NORAD_CAT_ID":41794,"ELEMENT_SET_NO":999,"REV_AT_EPOCH":3456,"BSTAR":0,"MEAN_MOTION_DOT":-2.44e-6,"MEAN_MOTION_DDOT":0},{"OBJECT_NAME":"HIMAWARI-9","OBJECT_ID":"2016-064A","EPOCH":"2026-03-13T07:47:51.644256","MEAN_MOTION":1.00270032,"ECCENTRICITY":0.00014931,"INCLINATION":0.0168,"RA_OF_ASC_NODE":188.9082,"ARG_OF_PERICENTER":206.6887,"MEAN_ANOMALY":33.0744,"EPHEMERIS_TYPE":0,"CLASSIFICATION_TYPE":"U","NORAD_CAT_ID":41836,"ELEMENT_SET_NO":999,"REV_AT_EPOCH":3424,"BSTAR":0,"MEAN_MOTION_DOT":-2.75e-6,"MEAN_MOTION_DDOT":0},{"OBJECT_NAME":"SHIJIAN-17 (SJ-17)","OBJECT_ID":"2016-065A","EPOCH":"2026-03-12T17:13:52.054176","MEAN_MOTION":0.99865501,"ECCENTRICITY":0.0001148,"INCLINATION":5.5064,"RA_OF_ASC_NODE":73.7601,"ARG_OF_PERICENTER":325.6027,"MEAN_ANOMALY":47.6368,"EPHEMERIS_TYPE":0,"CLASSIFICATION_TYPE":"U","NORAD_CAT_ID":41838,"ELEMENT_SET_NO":999,"REV_AT_EPOCH":3424,"BSTAR":0,"MEAN_MOTION_DOT":5.4e-7,"MEAN_MOTION_DDOT":0},{"OBJECT_NAME":"GOES 16","OBJECT_ID":"2016-071A","EPOCH":"2026-03-15T06:15:40.434624","MEAN_MOTION":1.00272428,"ECCENTRICITY":0.00021687,"INCLINATION":0.1254,"RA_OF_ASC_NODE":86.8652,"ARG_OF_PERICENTER":230.0129,"MEAN_ANOMALY":205.2111,"EPHEMERIS_TYPE":0,"CLASSIFICATION_TYPE":"U","NORAD_CAT_ID":41866,"ELEMENT_SET_NO":999,"REV_AT_EPOCH":3416,"BSTAR":0,"MEAN_MOTION_DOT":-9.2e-7,"MEAN_MOTION_DDOT":0},{"OBJECT_NAME":"TIANLIAN 1-04","OBJECT_ID":"2016-072A","EPOCH":"2026-03-15T05:53:05.102016","MEAN_MOTION":1.00269205,"ECCENTRICITY":0.0040012,"INCLINATION":0.6247,"RA_OF_ASC_NODE":83.4617,"ARG_OF_PERICENTER":94.6505,"MEAN_ANOMALY":259.8159,"EPHEMERIS_TYPE":0,"CLASSIFICATION_TYPE":"U","NORAD_CAT_ID":41869,"ELEMENT_SET_NO":999,"REV_AT_EPOCH":3435,"BSTAR":0,"MEAN_MOTION_DOT":3.0e-7,"MEAN_MOTION_DDOT":0},{"OBJECT_NAME":"WGS F8 (USA 272)","OBJECT_ID":"2016-075A","EPOCH":"2026-03-13T12:45:38.613024","MEAN_MOTION":1.00270429,"ECCENTRICITY":2.705e-5,"INCLINATION":0.0123,"RA_OF_ASC_NODE":191.9738,"ARG_OF_PERICENTER":214.5677,"MEAN_ANOMALY":105.805,"EPHEMERIS_TYPE":0,"CLASSIFICATION_TYPE":"U","NORAD_CAT_ID":41879,"ELEMENT_SET_NO":999,"REV_AT_EPOCH":3386,"BSTAR":0,"MEAN_MOTION_DOT":-2.03e-6,"MEAN_MOTION_DDOT":0},{"OBJECT_NAME":"FENGYUN 4A","OBJECT_ID":"2016-077A","EPOCH":"2026-03-15T07:20:49.188768","MEAN_MOTION":1.00274081,"ECCENTRICITY":0.00071389,"INCLINATION":2.0823,"RA_OF_ASC_NODE":81.2695,"ARG_OF_PERICENTER":133.1891,"MEAN_ANOMALY":192.4143,"EPHEMERIS_TYPE":0,"CLASSIFICATION_TYPE":"U","NORAD_CAT_ID":41882,"ELEMENT_SET_NO":999,"REV_AT_EPOCH":3398,"BSTAR":0,"MEAN_MOTION_DOT":-3.56e-6,"MEAN_MOTION_DDOT":0},{"OBJECT_NAME":"ECHOSTAR 19","OBJECT_ID":"2016-079A","EPOCH":"2026-03-14T01:12:05.986656","MEAN_MOTION":1.00272326,"ECCENTRICITY":0.00014584,"INCLINATION":0.0172,"RA_OF_ASC_NODE":136.0079,"ARG_OF_PERICENTER":225.665,"MEAN_ANOMALY":90.9198,"EPHEMERIS_TYPE":0,"CLASSIFICATION_TYPE":"U","NORAD_CAT_ID":41893,"ELEMENT_SET_NO":999,"REV_AT_EPOCH":3374,"BSTAR":0,"MEAN_MOTION_DOT":-1.39e-6,"MEAN_MOTION_DDOT":0},{"OBJECT_NAME":"JCSAT-110A (JCSAT-15)","OBJECT_ID":"2016-082A","EPOCH":"2026-03-14T12:32:38.609376","MEAN_MOTION":1.00270383,"ECCENTRICITY":7.215e-5,"INCLINATION":0.0183,"RA_OF_ASC_NODE":153.5843,"ARG_OF_PERICENTER":232.1672,"MEAN_ANOMALY":84.5958,"EPHEMERIS_TYPE":0,"CLASSIFICATION_TYPE":"U","NORAD_CAT_ID":41903,"ELEMENT_SET_NO":999,"REV_AT_EPOCH":3381,"BSTAR":0,"MEAN_MOTION_DOT":-3.51e-6,"MEAN_MOTION_DDOT":0},{"OBJECT_NAME":"STAR ONE D1","OBJECT_ID":"2016-082B","EPOCH":"2026-03-15T02:56:14.559936","MEAN_MOTION":1.00270741,"ECCENTRICITY":0.00021545,"INCLINATION":0.0096,"RA_OF_ASC_NODE":129.806,"ARG_OF_PERICENTER":231.2186,"MEAN_ANOMALY":131.7373,"EPHEMERIS_TYPE":0,"CLASSIFICATION_TYPE":"U","NORAD_CAT_ID":41904,"ELEMENT_SET_NO":999,"REV_AT_EPOCH":3383,"BSTAR":0,"MEAN_MOTION_DOT":-2.11e-6,"MEAN_MOTION_DDOT":0},{"OBJECT_NAME":"TJS-2","OBJECT_ID":"2017-001A","EPOCH":"2026-03-15T04:50:38.647680","MEAN_MOTION":1.002737,"ECCENTRICITY":0.00016584,"INCLINATION":0.5888,"RA_OF_ASC_NODE":86.7136,"ARG_OF_PERICENTER":265.1132,"MEAN_ANOMALY":320.1998,"EPHEMERIS_TYPE":0,"CLASSIFICATION_TYPE":"U","NORAD_CAT_ID":41911,"ELEMENT_SET_NO":999,"REV_AT_EPOCH":3377,"BSTAR":0,"MEAN_MOTION_DOT":-8.0e-8,"MEAN_MOTION_DDOT":0},{"OBJECT_NAME":"SBIRS GEO-4 (USA 273)","OBJECT_ID":"2017-004A","EPOCH":"2026-03-14T13:44:34.552896","MEAN_MOTION":1.00272872,"ECCENTRICITY":0.00023033,"INCLINATION":2.0663,"RA_OF_ASC_NODE":40.3824,"ARG_OF_PERICENTER":316.9095,"MEAN_ANOMALY":41.9346,"EPHEMERIS_TYPE":0,"CLASSIFICATION_TYPE":"U","NORAD_CAT_ID":41937,"ELEMENT_SET_NO":999,"REV_AT_EPOCH":3364,"BSTAR":0,"MEAN_MOTION_DOT":1.24e-6,"MEAN_MOTION_DDOT":0},{"OBJECT_NAME":"HISPASAT 36W-1","OBJECT_ID":"2017-006A","EPOCH":"2026-03-13T20:21:26.360064","MEAN_MOTION":1.0027159,"ECCENTRICITY":0.00010022,"INCLINATION":0.0179,"RA_OF_ASC_NODE":35.8302,"ARG_OF_PERICENTER":317.5629,"MEAN_ANOMALY":87.4255,"EPHEMERIS_TYPE":0,"CLASSIFICATION_TYPE":"U","NORAD_CAT_ID":41942,"ELEMENT_SET_NO":999,"REV_AT_EPOCH":3328,"BSTAR":0,"MEAN_MOTION_DOT":-2.45e-6,"MEAN_MOTION_DDOT":0},{"OBJECT_NAME":"TELKOM 3S","OBJECT_ID":"2017-007A","EPOCH":"2026-03-15T00:28:28.731936","MEAN_MOTION":1.00272461,"ECCENTRICITY":0.00022724,"INCLINATION":0.0129,"RA_OF_ASC_NODE":170.1148,"ARG_OF_PERICENTER":188.7688,"MEAN_ANOMALY":298.8613,"EPHEMERIS_TYPE":0,"CLASSIFICATION_TYPE":"U","NORAD_CAT_ID":41944,"ELEMENT_SET_NO":999,"REV_AT_EPOCH":3319,"BSTAR":0,"MEAN_MOTION_DOT":-3.63e-6,"MEAN_MOTION_DDOT":0},{"OBJECT_NAME":"INTELSAT 32E (IS-32E)","OBJECT_ID":"2017-007B","EPOCH":"2026-03-12T11:48:18.137376","MEAN_MOTION":1.00269761,"ECCENTRICITY":1.16e-5,"INCLINATION":0.0131,"RA_OF_ASC_NODE":123.3831,"ARG_OF_PERICENTER":337.3904,"MEAN_ANOMALY":203.2341,"EPHEMERIS_TYPE":0,"CLASSIFICATION_TYPE":"U","NORAD_CAT_ID":41945,"ELEMENT_SET_NO":999,"REV_AT_EPOCH":3325,"BSTAR":0,"MEAN_MOTION_DOT":-2.69e-6,"MEAN_MOTION_DDOT":0},{"OBJECT_NAME":"ECHOSTAR 23","OBJECT_ID":"2017-014A","EPOCH":"2026-03-14T02:51:11.484288","MEAN_MOTION":1.00269918,"ECCENTRICITY":0.00019285,"INCLINATION":0.0262,"RA_OF_ASC_NODE":151.637,"ARG_OF_PERICENTER":194.5363,"MEAN_ANOMALY":118.4769,"EPHEMERIS_TYPE":0,"CLASSIFICATION_TYPE":"U","NORAD_CAT_ID":42070,"ELEMENT_SET_NO":999,"REV_AT_EPOCH":3297,"BSTAR":0,"MEAN_MOTION_DOT":0,"MEAN_MOTION_DDOT":0}]
